{
"type": "FeatureCollection",
"name": "ithaca_neighborhoods_with_counts",
"crs": { "type": "name", "properties": { "name": "urn:ogc:def:crs:OGC:1.3:CRS84" } },
"features": [
{ "type": "Feature", "properties": { "fid": 1, "name": "Collegetown", "building_count": 721 }, "geometry": { "type": "Polygon", "coordinates": [ [ [ -76.477674637631637, 42.44115610668058 ], [ -76.477979419614954, 42.441417348380561 ], [ -76.47852280328091, 42.441645218950157 ], [ -76.479550088246171, 42.441690674906035 ], [ -76.480661280934029, 42.441653983202833 ], [ -76.482633237786303, 42.44239018042768 ], [ -76.483084674251103, 42.44253469862042 ], [ -76.483364238376623, 42.442613977999301 ], [ -76.483472725947721, 42.442626495795963 ], [ -76.48505414092638, 42.442584769807084 ], [ -76.485055843202929, 42.442588303084783 ], [ -76.48505760662438, 42.442591806246426 ], [ -76.485059430658112, 42.442595278233988 ], [ -76.485061314753267, 42.442598717998841 ], [ -76.485063258340759, 42.442602124502088 ], [ -76.485065260833608, 42.442605496714883 ], [ -76.485067321627, 42.442608833618735 ], [ -76.485069440098513, 42.442612134205824 ], [ -76.485071615608348, 42.442615397479294 ], [ -76.485073847499422, 42.442618622453551 ], [ -76.485076135097657, 42.442621808154577 ], [ -76.48507847771215, 42.442624953620211 ], [ -76.485080874635372, 42.44262805790045 ], [ -76.485083325143393, 42.442631120057726 ], [ -76.485085828496096, 42.442634139167197 ], [ -76.485088383937409, 42.442637114317009 ], [ -76.485090990695525, 42.442640044608602 ], [ -76.485093647983149, 42.442642929156953 ], [ -76.485096354997722, 42.442645767090866 ], [ -76.485099110921638, 42.442648557553206 ], [ -76.485101914922552, 42.442651299701197 ], [ -76.485104766153597, 42.442653992706632 ], [ -76.48510766375361, 42.442656635756165 ], [ -76.485110606847471, 42.442659228051532 ], [ -76.485113594546277, 42.442661768809799 ], [ -76.485116625947683, 42.442664257263587 ], [ -76.485119700136124, 42.442666692661334 ], [ -76.485122816183122, 42.442669074267478 ], [ -76.485125973147547, 42.44267140136273 ], [ -76.485129170075936, 42.442673673244236 ], [ -76.485132406002734, 42.442675889225846 ], [ -76.485135679950616, 42.442678048638278 ], [ -76.48513899093075, 42.442680150829332 ], [ -76.485142337943174, 42.442682195164096 ], [ -76.485145719976984, 42.442684181025129 ], [ -76.485149136010719, 42.442686107812662 ], [ -76.485152585012671, 42.442687974944754 ], [ -76.485156065941155, 42.442689781857482 ], [ -76.485159577744852, 42.44269152800512 ], [ -76.485163119363094, 42.442693212860291 ], [ -76.485166689726242, 42.442694835914118 ], [ -76.485170287755949, 42.442696396676411 ], [ -76.485173912365539, 42.442697894675774 ], [ -76.485177562460265, 42.442699329459778 ], [ -76.485181236937748, 42.442700700595083 ], [ -76.485184934688178, 42.442702007667577 ], [ -76.485188654594751, 42.442703250282484 ], [ -76.485192395533971, 42.442704428064509 ], [ -76.485196156375977, 42.44270554065794 ], [ -76.485199935984895, 42.442706587726732 ], [ -76.485203733219222, 42.44270756895466 ], [ -76.485207546932074, 42.442708484045355 ], [ -76.48521137597163, 42.442709332722451 ], [ -76.485215219181427, 42.442710114729621 ], [ -76.485219075400721, 42.442710829830673 ], [ -76.485222943464834, 42.442711477809645 ], [ -76.485226822205519, 42.442712058470818 ], [ -76.485230710451305, 42.442712571638822 ], [ -76.485234607027863, 42.442713017158674 ], [ -76.485238510758307, 42.442713394895804 ], [ -76.485242420463621, 42.442713704736136 ], [ -76.485246334962994, 42.442713946586089 ], [ -76.485250253074142, 42.442714120372621 ], [ -76.486572966921742, 42.442739155965945 ], [ -76.486840013250585, 42.442722465570398 ], [ -76.487123495322507, 42.442675733859325 ], [ -76.487399141501612, 42.442593115004854 ], [ -76.494529506067948, 42.442733639673371 ], [ -76.494539930006852, 42.44272101398397 ], [ -76.494433771526019, 42.442614855503145 ], [ -76.494433771526019, 42.442582128463052 ], [ -76.494405638446025, 42.441425826330992 ], [ -76.494393040934781, 42.441427361851694 ], [ -76.494210678620306, 42.441449590139804 ], [ -76.494194523232892, 42.440550379098774 ], [ -76.494172215828229, 42.439873721157575 ], [ -76.493710405022227, 42.439460652826462 ], [ -76.493688888727377, 42.439442444667584 ], [ -76.492097627195335, 42.439278857033443 ], [ -76.490658673982153, 42.439278857033443 ], [ -76.489645178002078, 42.439265343753711 ], [ -76.489249004765711, 42.439076689831637 ], [ -76.486327684180836, 42.437410812803897 ], [ -76.48608250585751, 42.437269513452726 ], [ -76.486075796764183, 42.437267174524976 ], [ -76.484770894709641, 42.43771084122352 ], [ -76.48469301634276, 42.437724819391931 ], [ -76.484563992316396, 42.437734744317034 ], [ -76.484436622444207, 42.437731436008669 ], [ -76.484335719038967, 42.437726473546114 ], [ -76.483953609422414, 42.437678503074771 ], [ -76.483220819118813, 42.437577599669538 ], [ -76.482484044202081, 42.437482312044523 ], [ -76.481786835092578, 42.437499432223845 ], [ -76.481704227002581, 42.43761585378202 ], [ -76.481516356081272, 42.437806804554505 ], [ -76.480161542017413, 42.438811989182518 ], [ -76.479916319456521, 42.438912963178183 ], [ -76.479259000505763, 42.439228476274543 ], [ -76.478750673850513, 42.439482639602168 ], [ -76.478480706227998, 42.439697229250839 ], [ -76.478408867996123, 42.439754331435147 ], [ -76.478389078522611, 42.439790729931076 ], [ -76.478286168458638, 42.439980010941575 ], [ -76.478233582942579, 42.440120238984406 ], [ -76.478242984890443, 42.440345885733272 ], [ -76.478120756052832, 42.440810355316195 ], [ -76.47767267077127, 42.44115442080026 ], [ -76.477674637631637, 42.44115610668058 ] ] ] } },
{ "type": "Feature", "properties": { "fid": 2, "name": "Fall Creek", "building_count": 1297 }, "geometry": { "type": "Polygon", "coordinates": [ [ [ -76.494571671632968, 42.442735332123675 ], [ -76.494531651275054, 42.443140696126321 ], [ -76.494420933487248, 42.443386735654791 ], [ -76.494593161157169, 42.443460547513332 ], [ -76.49480366472622, 42.447250443789763 ], [ -76.495121690721916, 42.452155702537425 ], [ -76.494623677798117, 42.452165279709035 ], [ -76.494652409312948, 42.452893144751499 ], [ -76.502285415087243, 42.452646532582506 ], [ -76.502994125786486, 42.451861204510372 ], [ -76.503176092047099, 42.451650506734921 ], [ -76.503291018106438, 42.451573889362031 ], [ -76.504007329609223, 42.450896150550271 ], [ -76.504027066952361, 42.450877476044226 ], [ -76.503903233495365, 42.450629809130234 ], [ -76.50223787642544, 42.44853216109675 ], [ -76.501748531343623, 42.447915792531049 ], [ -76.500770266225985, 42.446714870587684 ], [ -76.500278275258609, 42.446110900622898 ], [ -76.499225545341702, 42.444731004894997 ], [ -76.499206297251007, 42.444706978909451 ], [ -76.499167361032605, 42.44317548765234 ], [ -76.499086602772735, 42.441377355265914 ], [ -76.499085773343381, 42.44135518104622 ], [ -76.499122539860466, 42.442617184792411 ], [ -76.497093028471653, 42.442655496490261 ], [ -76.496039742204999, 42.442685522998659 ], [ -76.495786452870234, 42.442685522998659 ], [ -76.494571988900617, 42.442729938573663 ], [ -76.494571671632968, 42.442735332123675 ] ] ] } },
{ "type": "Feature", "properties": { "fid": 3, "name": "North Side", "building_count": 824 }, "geometry": { "type": "Polygon", "coordinates": [ [ [ -76.504007329609223, 42.450896150550271 ], [ -76.504042433229728, 42.450943048987277 ], [ -76.506133243897224, 42.448979505056066 ], [ -76.50729682548608, 42.447797742504875 ], [ -76.508387683225649, 42.446506894179727 ], [ -76.508587673811235, 42.445816017611335 ], [ -76.508987654982406, 42.445016055268994 ], [ -76.509660350588462, 42.444488807361537 ], [ -76.510551217742446, 42.443797930793146 ], [ -76.510751208328031, 42.44316159711174 ], [ -76.510630706144013, 42.440981825841604 ], [ -76.510622407932331, 42.440982047300942 ], [ -76.499092635273598, 42.441342001190343 ], [ -76.499093529086068, 42.441377157814365 ], [ -76.499086602772735, 42.441377355265914 ], [ -76.499167361032605, 42.44317548765234 ], [ -76.499206297251007, 42.444706978909451 ], [ -76.499225545341702, 42.444731004894997 ], [ -76.500278275258609, 42.446110900622898 ], [ -76.500770266225985, 42.446714870587684 ], [ -76.501748531343623, 42.447915792531049 ], [ -76.50223787642544, 42.44853216109675 ], [ -76.503903233495365, 42.450629809130234 ], [ -76.504027066952361, 42.450877476044226 ], [ -76.504007329609223, 42.450896150550271 ] ] ] } },
{ "type": "Feature", "properties": { "fid": 4, "name": "Downtown", "building_count": 512 }, "geometry": { "type": "Polygon", "coordinates": [ [ [ -76.494539930006852, 42.44272101398397 ], [ -76.494554731078608, 42.442735815055727 ], [ -76.494571671632968, 42.442735332123675 ], [ -76.494571988900617, 42.442729938573663 ], [ -76.495786452870234, 42.442685522998659 ], [ -76.496039742204999, 42.442685522998659 ], [ -76.497093028471653, 42.442655496490261 ], [ -76.499122539860466, 42.442617184792411 ], [ -76.499085773343381, 42.44135518104622 ], [ -76.499086602772735, 42.441377355265914 ], [ -76.499093529086068, 42.441377157814365 ], [ -76.499092635273598, 42.441342001190343 ], [ -76.510622407932331, 42.440982047300942 ], [ -76.510491412993758, 42.439177239251293 ], [ -76.510310297238689, 42.438708469061673 ], [ -76.510011988936199, 42.438207737268215 ], [ -76.50824170826543, 42.436784736268315 ], [ -76.508232591598642, 42.436777408037166 ], [ -76.508232591598642, 42.43828598532756 ], [ -76.499740974071145, 42.438548419423334 ], [ -76.499728129898827, 42.437675015704841 ], [ -76.499669952485476, 42.436835252708661 ], [ -76.498968695965331, 42.43688053730245 ], [ -76.498937615978136, 42.43687680268696 ], [ -76.498250482887428, 42.43690704352219 ], [ -76.498047988282636, 42.437385266457426 ], [ -76.497578200799566, 42.437839574865542 ], [ -76.496606226696613, 42.438198237071703 ], [ -76.494725982048294, 42.439009531771084 ], [ -76.494573557278059, 42.439064958960259 ], [ -76.494298620823812, 42.439220756284335 ], [ -76.493986334466015, 42.439375104714046 ], [ -76.4936922805378, 42.439445117554101 ], [ -76.493710405022227, 42.439460652826462 ], [ -76.494172215828229, 42.439873721157575 ], [ -76.494194523232892, 42.440550379098774 ], [ -76.494210678620306, 42.441449590139804 ], [ -76.494393040934781, 42.441427361851694 ], [ -76.494405638446025, 42.441425826330992 ], [ -76.494433771526019, 42.442582128463052 ], [ -76.494433771526019, 42.442614855503145 ], [ -76.494539930006852, 42.44272101398397 ] ] ] } },
{ "type": "Feature", "properties": { "fid": 5, "name": "South Side", "building_count": 771 }, "geometry": { "type": "Polygon", "coordinates": [ [ [ -76.50824170826543, 42.436784736268315 ], [ -76.507885619816946, 42.429194429866385 ], [ -76.508131295860778, 42.428419605420459 ], [ -76.507583249301462, 42.428419605420459 ], [ -76.501857107664506, 42.431518903204164 ], [ -76.501063385061357, 42.431915764505732 ], [ -76.49879560619523, 42.434712691773953 ], [ -76.498913692717096, 42.436649207063866 ], [ -76.498937615978136, 42.43687680268696 ], [ -76.498968695965331, 42.43688053730245 ], [ -76.499669952485476, 42.436835252708661 ], [ -76.499728129898827, 42.437675015704841 ], [ -76.499740974071145, 42.438548419423334 ], [ -76.508232591598642, 42.43828598532756 ], [ -76.508232591598642, 42.436777408037166 ], [ -76.50824170826543, 42.436784736268315 ] ] ] } },
{ "type": "Feature", "properties": { "fid": 6, "name": "South Hill", "building_count": 959 }, "geometry": { "type": "Polygon", "coordinates": [ [ [ -76.493710405022227, 42.439460652826462 ], [ -76.4936922805378, 42.439445117554101 ], [ -76.493986334466015, 42.439375104714046 ], [ -76.494298620823812, 42.439220756284335 ], [ -76.494573557278059, 42.439064958960259 ], [ -76.494725982048294, 42.439009531771084 ], [ -76.496606226696613, 42.438198237071703 ], [ -76.497578200799566, 42.437839574865542 ], [ -76.498047988282636, 42.437385266457426 ], [ -76.498250482887428, 42.43690704352219 ], [ -76.498937615978136, 42.43687680268696 ], [ -76.498913692717096, 42.436649207063866 ], [ -76.498794710531072, 42.434709424478037 ], [ -76.49877448082762, 42.431988966946768 ], [ -76.501422757249756, 42.429078773076284 ], [ -76.502062999901256, 42.427623676141046 ], [ -76.501801082452914, 42.427274452876588 ], [ -76.501277247556231, 42.427274452876588 ], [ -76.499065500214655, 42.428263918792553 ], [ -76.498105136237399, 42.428118409099028 ], [ -76.494438291960591, 42.42945709827945 ], [ -76.492081034925505, 42.429551679580236 ], [ -76.491266180641773, 42.429231558254486 ], [ -76.488617904219623, 42.426554179893635 ], [ -76.485242079329865, 42.423265660819993 ], [ -76.481400623420825, 42.426263160506593 ], [ -76.482011764133631, 42.434782753062429 ], [ -76.484295890004617, 42.436179520681378 ], [ -76.486056933613611, 42.437256417852339 ], [ -76.486075796764183, 42.437267174524976 ], [ -76.48608250585751, 42.437269513452726 ], [ -76.486327684180836, 42.437410812803897 ], [ -76.489249004765711, 42.439076689831637 ], [ -76.489645178002078, 42.439265343753711 ], [ -76.490658673982153, 42.439278857033443 ], [ -76.492097627195335, 42.439278857033443 ], [ -76.493688888727377, 42.439442444667584 ], [ -76.493710405022227, 42.439460652826462 ] ] ] } },
{ "type": "Feature", "properties": { "fid": 7, "name": "Belle Sherman", "building_count": 992 }, "geometry": { "type": "Polygon", "coordinates": [ [ [ -76.486075796764183, 42.437267174524976 ], [ -76.486056933613611, 42.437256417852339 ], [ -76.484295890004617, 42.436179520681378 ], [ -76.481953560256215, 42.434760926608398 ], [ -76.478315817918116, 42.432694688960353 ], [ -76.475027298844466, 42.431297795902523 ], [ -76.472058901096574, 42.429318864070595 ], [ -76.461523999285433, 42.422334398781437 ], [ -76.461727712856359, 42.426204956629178 ], [ -76.462164241936932, 42.427630951625716 ], [ -76.463153707852896, 42.43441170334394 ], [ -76.463561134994762, 42.435139251811563 ], [ -76.464259581523706, 42.435743117039692 ], [ -76.466296717233035, 42.440137509784115 ], [ -76.467402590903816, 42.439875592335774 ], [ -76.468246547126256, 42.440021102029299 ], [ -76.470196377019491, 42.441097873761379 ], [ -76.471098537119332, 42.44135979120972 ], [ -76.477674637631637, 42.44115610668058 ], [ -76.47767267077127, 42.44115442080026 ], [ -76.478120756052832, 42.440810355316195 ], [ -76.478242984890443, 42.440345885733272 ], [ -76.478233582942579, 42.440120238984406 ], [ -76.478286168458638, 42.439980010941575 ], [ -76.478389078522611, 42.439790729931076 ], [ -76.478408867996123, 42.439754331435147 ], [ -76.478480706227998, 42.439697229250839 ], [ -76.478750673850513, 42.439482639602168 ], [ -76.479259000505763, 42.439228476274543 ], [ -76.479916319456521, 42.438912963178183 ], [ -76.480161542017413, 42.438811989182518 ], [ -76.481516356081272, 42.437806804554505 ], [ -76.481704227002581, 42.43761585378202 ], [ -76.481786835092578, 42.437499432223845 ], [ -76.482484044202081, 42.437482312044523 ], [ -76.483220819118813, 42.437577599669538 ], [ -76.483953609422414, 42.437678503074771 ], [ -76.484335719038967, 42.437726473546114 ], [ -76.484436622444207, 42.437731436008669 ], [ -76.484563992316396, 42.437734744317034 ], [ -76.48469301634276, 42.437724819391931 ], [ -76.484770894709641, 42.43771084122352 ], [ -76.486075796764183, 42.437267174524976 ] ] ] } }
]
}
