{
"type": "FeatureCollection",
"name": "cornell_main_boundary",
"crs": { "type": "name", "properties": { "name": "urn:ogc:def:crs:OGC:1.3:CRS84" } },
"features": [
{ "type": "Feature", "properties": { "name": "Cornell University (Main Campus)" }, "geometry": { "type": "Polygon", "coordinates": [ [ [ -76.4929817, 42.4472941 ], [ -76.4929188, 42.4472643 ], [ -76.4928373, 42.4471485 ], [ -76.4927632, 42.446276 ], [ -76.4926745, 42.4462178 ], [ -76.4925632, 42.4461809 ], [ -76.4920953, 42.4461871 ], [ -76.4900575, 42.446214 ], [ -76.4898283, 42.4455454 ], [ -76.489727, 42.4453887 ], [ -76.4894566, 42.4450902 ], [ -76.4892145, 42.4447757 ], [ -76.4892674, 42.4446826 ], [ -76.4893066, 42.4445517 ], [ -76.489349, 42.4442219 ], [ -76.4894264, 42.443673 ], [ -76.4894685, 42.4435581 ], [ -76.4895508, 42.4431009 ], [ -76.4896146, 42.4428443 ], [ -76.4897359, 42.4425611 ], [ -76.4897715, 42.4423759 ], [ -76.4897231, 42.4423493 ], [ -76.4889916, 42.442365 ], [ -76.489002, 42.4427616 ], [ -76.4888592, 42.4431611 ], [ -76.4883395, 42.443125 ], [ -76.4880273, 42.4429034 ], [ -76.4878268, 42.442778 ], [ -76.4877225, 42.4424174 ], [ -76.4873581, 42.4424192 ], [ -76.487347, 42.4422305 ], [ -76.4870494, 42.4422275 ], [ -76.4868031, 42.4422583 ], [ -76.4867886, 42.4422601 ], [ -76.4860033, 42.4422495 ], [ -76.4860091, 42.4421824 ], [ -76.4858267, 42.4421873 ], [ -76.4857567, 42.442133 ], [ -76.4857611, 42.4419486 ], [ -76.4853519, 42.4419562 ], [ -76.4853649, 42.4422622 ], [ -76.485395, 42.4426306 ], [ -76.4853075, 42.442833 ], [ -76.4851217, 42.4428547 ], [ -76.4849292, 42.4426444 ], [ -76.4843892, 42.4426713 ], [ -76.4843994, 42.4428732 ], [ -76.4842822, 42.4428859 ], [ -76.4840531, 42.4429107 ], [ -76.4838188, 42.4428454 ], [ -76.4838161, 42.4428247 ], [ -76.4832977, 42.4427442 ], [ -76.4832992, 42.4426693 ], [ -76.4832126, 42.4426405 ], [ -76.4828495, 42.4425199 ], [ -76.4827087, 42.4424731 ], [ -76.482457, 42.4423518 ], [ -76.4820973, 42.4421631 ], [ -76.4813681, 42.4419247 ], [ -76.4811296, 42.442035 ], [ -76.4806148, 42.4420437 ], [ -76.4802858, 42.4419258 ], [ -76.4802926, 42.4421027 ], [ -76.4801618, 42.4420233 ], [ -76.4797426, 42.4419441 ], [ -76.4797336, 42.4417237 ], [ -76.4793585, 42.4417193 ], [ -76.4786089, 42.4417106 ], [ -76.4783874, 42.4416597 ], [ -76.4781534, 42.4415601 ], [ -76.4774877, 42.4412304 ], [ -76.4748133, 42.4413536 ], [ -76.4735459, 42.44139 ], [ -76.4723082, 42.4413959 ], [ -76.4711482, 42.4414139 ], [ -76.4707738, 42.4413865 ], [ -76.4703063, 42.4412189 ], [ -76.4700536, 42.4425642 ], [ -76.4692144, 42.4424198 ], [ -76.4688522, 42.4422782 ], [ -76.4685363, 42.4419575 ], [ -76.4678157, 42.4415223 ], [ -76.4668111, 42.44134 ], [ -76.4654431, 42.4411407 ], [ -76.4653101, 42.4415085 ], [ -76.4654885, 42.4421445 ], [ -76.4554463, 42.4420812 ], [ -76.4557038, 42.4467523 ], [ -76.4566265, 42.4467365 ], [ -76.4566265, 42.4473381 ], [ -76.457297, 42.4473389 ], [ -76.4573777, 42.4479046 ], [ -76.4566766, 42.4481901 ], [ -76.4571709, 42.4487608 ], [ -76.4564288, 42.4490799 ], [ -76.456614, 42.4493642 ], [ -76.4566614, 42.4493529 ], [ -76.4568693, 42.4497246 ], [ -76.4566943, 42.449783 ], [ -76.4568494, 42.4498763 ], [ -76.4570403, 42.4501172 ], [ -76.4571882, 42.4502171 ], [ -76.4574078, 42.4502724 ], [ -76.4577995, 42.4502642 ], [ -76.458127, 42.4503219 ], [ -76.4584141, 42.450477 ], [ -76.4586031, 42.450628 ], [ -76.4590256, 42.4511864 ], [ -76.459194, 42.4513385 ], [ -76.4596388, 42.451579 ], [ -76.460105, 42.4518261 ], [ -76.460186, 42.4519596 ], [ -76.4601944, 42.4520612 ], [ -76.46015, 42.4521684 ], [ -76.4600451, 42.4523083 ], [ -76.46007, 42.452356 ], [ -76.4604461, 42.4525067 ], [ -76.460872, 42.4526286 ], [ -76.4612603, 42.4526976 ], [ -76.461592, 42.4527165 ], [ -76.4620356, 42.452698 ], [ -76.4623886, 42.4526488 ], [ -76.4630741, 42.4524331 ], [ -76.4636696, 42.4520891 ], [ -76.4638351, 42.4519707 ], [ -76.4641524, 42.4516941 ], [ -76.4645638, 42.4511083 ], [ -76.4650203, 42.4499095 ], [ -76.4658832, 42.4507946 ], [ -76.4661615, 42.4510631 ], [ -76.4665564, 42.4512407 ], [ -76.4667285, 42.4510029 ], [ -76.4669959, 42.4508357 ], [ -76.4674402, 42.4506947 ], [ -76.4677719, 42.450701 ], [ -76.4680515, 42.4507713 ], [ -76.4684933, 42.4510963 ], [ -76.4687786, 42.4513656 ], [ -76.4691407, 42.4517733 ], [ -76.4694894, 42.4522048 ], [ -76.4697871, 42.4525075 ], [ -76.4701036, 42.4527371 ], [ -76.4703343, 42.4529509 ], [ -76.4706293, 42.4532596 ], [ -76.470059, 42.4541771 ], [ -76.4688735, 42.4540995 ], [ -76.4684846, 42.4541668 ], [ -76.468576, 42.4559687 ], [ -76.4683588, 42.4559684 ], [ -76.4675124, 42.455991 ], [ -76.4674977, 42.455811 ], [ -76.4645518, 42.4558832 ], [ -76.4641416, 42.4557641 ], [ -76.4626561, 42.4553328 ], [ -76.4610038, 42.4564093 ], [ -76.4607486, 42.4562309 ], [ -76.4585577, 42.4546995 ], [ -76.4579998, 42.4547312 ], [ -76.4579288, 42.4548069 ], [ -76.4584388, 42.4588344 ], [ -76.4584497, 42.4590217 ], [ -76.4579429, 42.4591315 ], [ -76.4569102, 42.4592035 ], [ -76.4563329, 42.4592155 ], [ -76.4555767, 42.4591855 ], [ -76.4553897, 42.4591015 ], [ -76.4553328, 42.4579197 ], [ -76.4552271, 42.4578897 ], [ -76.4538693, 42.4580877 ], [ -76.4527147, 42.4584176 ], [ -76.452178, 42.4587356 ], [ -76.4522109, 42.4589136 ], [ -76.4520822, 42.4591036 ], [ -76.4521251, 42.4592698 ], [ -76.4519534, 42.4605046 ], [ -76.4496326, 42.4606427 ], [ -76.449744, 42.4624013 ], [ -76.4521594, 42.4622598 ], [ -76.4554104, 42.4622401 ], [ -76.4565227, 42.4622333 ], [ -76.4566028, 42.4646306 ], [ -76.4578712, 42.4645967 ], [ -76.457811, 42.4629837 ], [ -76.4582938, 42.4629441 ], [ -76.4592487, 42.4623228 ], [ -76.4591417, 42.4620955 ], [ -76.4596031, 42.4620401 ], [ -76.4596353, 42.4613911 ], [ -76.4601717, 42.4613278 ], [ -76.4593885, 42.4601405 ], [ -76.4591504, 42.4594547 ], [ -76.4604477, 42.4589487 ], [ -76.4609042, 42.4588601 ], [ -76.4614101, 42.4586136 ], [ -76.4619056, 42.4583069 ], [ -76.4620128, 42.4589314 ], [ -76.4636712, 42.4588523 ], [ -76.463795, 42.4590193 ], [ -76.4614959, 42.4591264 ], [ -76.4607482, 42.4593379 ], [ -76.4602123, 42.4596505 ], [ -76.4617576, 42.4615811 ], [ -76.4634274, 42.4629417 ], [ -76.4657972, 42.4628211 ], [ -76.4661014, 42.4628881 ], [ -76.4663178, 42.462867 ], [ -76.4667342, 42.4627905 ], [ -76.466775, 42.4625876 ], [ -76.4667668, 42.4613162 ], [ -76.4664529, 42.4602371 ], [ -76.4663993, 42.4589997 ], [ -76.4665894, 42.4587739 ], [ -76.4682354, 42.4587539 ], [ -76.4678343, 42.4607626 ], [ -76.4685272, 42.4607075 ], [ -76.468687, 42.4603715 ], [ -76.4694266, 42.4603753 ], [ -76.4699243, 42.4602723 ], [ -76.4735878, 42.4604402 ], [ -76.4736328, 42.4603865 ], [ -76.4739563, 42.4602186 ], [ -76.4750423, 42.4601618 ], [ -76.4753197, 42.4601337 ], [ -76.4755224, 42.460115 ], [ -76.475602, 42.4602759 ], [ -76.4757258, 42.4606608 ], [ -76.4758316, 42.4612489 ], [ -76.475972, 42.4612416 ], [ -76.4765786, 42.4611872 ], [ -76.4770725, 42.4609995 ], [ -76.4775962, 42.4608836 ], [ -76.4779254, 42.4607456 ], [ -76.4779329, 42.4605856 ], [ -76.478075, 42.4605138 ], [ -76.478105, 42.4604365 ], [ -76.478085, 42.4602444 ], [ -76.478092, 42.460191 ], [ -76.4781223, 42.4601583 ], [ -76.4781901, 42.460141 ], [ -76.4782858, 42.4601428 ], [ -76.4785496, 42.4601445 ], [ -76.4787785, 42.4601255 ], [ -76.4788999, 42.4600842 ], [ -76.4789676, 42.4600446 ], [ -76.4789816, 42.4599998 ], [ -76.4789559, 42.4599636 ], [ -76.4788625, 42.4599033 ], [ -76.4787878, 42.4598413 ], [ -76.478575, 42.4593846 ], [ -76.4811643, 42.459009 ], [ -76.4818606, 42.458795 ], [ -76.4820878, 42.4586592 ], [ -76.4828257, 42.4585963 ], [ -76.4831642, 42.4583903 ], [ -76.4848875, 42.4583082 ], [ -76.4847885, 42.4579937 ], [ -76.4845645, 42.4575817 ], [ -76.4844036, 42.4573757 ], [ -76.4844468, 42.4572424 ], [ -76.4849183, 42.456974 ], [ -76.485432, 42.456827 ], [ -76.4861994, 42.4567221 ], [ -76.4863552, 42.4577148 ], [ -76.4864093, 42.4581449 ], [ -76.4870319, 42.4578707 ], [ -76.4873119, 42.4574033 ], [ -76.4874077, 42.4570283 ], [ -76.4873154, 42.4568013 ], [ -76.4872213, 42.4566802 ], [ -76.4877894, 42.4567061 ], [ -76.488649, 42.4563693 ], [ -76.4887976, 42.4562648 ], [ -76.4905521, 42.4562091 ], [ -76.4907227, 42.4560452 ], [ -76.4907227, 42.4558552 ], [ -76.4905725, 42.4555544 ], [ -76.4904652, 42.4552061 ], [ -76.4904652, 42.4548737 ], [ -76.4905725, 42.4546679 ], [ -76.4907656, 42.4544304 ], [ -76.4907013, 42.4540188 ], [ -76.4906584, 42.4536388 ], [ -76.4905296, 42.4532905 ], [ -76.49013, 42.4530302 ], [ -76.4897929, 42.4528643 ], [ -76.4896786, 42.4526925 ], [ -76.4896408, 42.4525441 ], [ -76.4897338, 42.4521649 ], [ -76.4903218, 42.4522075 ], [ -76.4906922, 42.452326 ], [ -76.4911299, 42.4523005 ], [ -76.49112, 42.4518014 ], [ -76.4909366, 42.4517948 ], [ -76.4909902, 42.4516581 ], [ -76.4908368, 42.4504708 ], [ -76.491345, 42.4502348 ], [ -76.4923954, 42.4491582 ], [ -76.4925885, 42.4485565 ], [ -76.4929817, 42.4472941 ] ] ] } }
]
}
