{"type":"FeatureCollection", "features": [
{"type":"Feature","geometry":{"type":"Polygon","coordinates":[[[-76.47767463763164,42.44115610668058],[-76.47797941961495,42.44141734838056],[-76.47852280328091,42.44164521895016],[-76.47955008824617,42.441690674906035],[-76.48066128093403,42.44165398320283],[-76.4826332377863,42.44239018042768],[-76.4830846742511,42.44253469862042],[-76.48336423837662,42.4426139779993],[-76.48347272594772,42.44262649579596],[-76.48505414092638,42.442584769807084],[-76.48505584320293,42.44258830308478],[-76.48505760662438,42.442591806246426],[-76.48505943065811,42.44259527823399],[-76.48506131475327,42.44259871799884],[-76.48506325834076,42.44260212450209],[-76.48506526083361,42.44260549671488],[-76.485067321627,42.442608833618735],[-76.48506944009851,42.442612134205824],[-76.48507161560835,42.442615397479294],[-76.48507384749942,42.44261862245355],[-76.48507613509766,42.44262180815458],[-76.48507847771215,42.44262495362021],[-76.48508087463537,42.44262805790045],[-76.48508332514339,42.442631120057726],[-76.4850858284961,42.4426341391672],[-76.48508838393741,42.44263711431701],[-76.48509099069553,42.4426400446086],[-76.48509364798315,42.44264292915695],[-76.48509635499772,42.442645767090866],[-76.48509911092164,42.442648557553206],[-76.48510191492255,42.4426512997012],[-76.4851047661536,42.44265399270663],[-76.48510766375361,42.442656635756165],[-76.48511060684747,42.44265922805153],[-76.48511359454628,42.4426617688098],[-76.48511662594768,42.44266425726359],[-76.48511970013612,42.442666692661334],[-76.48512281618312,42.44266907426748],[-76.48512597314755,42.44267140136273],[-76.48512917007594,42.44267367324424],[-76.48513240600273,42.442675889225846],[-76.48513567995062,42.44267804863828],[-76.48513899093075,42.44268015082933],[-76.48514233794317,42.442682195164096],[-76.48514571997698,42.44268418102513],[-76.48514913601072,42.44268610781266],[-76.48515258501267,42.442687974944754],[-76.48515606594115,42.44268978185748],[-76.48515957774485,42.44269152800512],[-76.4851631193631,42.44269321286029],[-76.48516668972624,42.44269483591412],[-76.48517028775595,42.44269639667641],[-76.48517391236554,42.442697894675774],[-76.48517756246027,42.44269932945978],[-76.48518123693775,42.44270070059508],[-76.48518493468818,42.44270200766758],[-76.48518865459475,42.442703250282484],[-76.48519239553397,42.44270442806451],[-76.48519615637598,42.44270554065794],[-76.4851999359849,42.44270658772673],[-76.48520373321922,42.44270756895466],[-76.48520754693207,42.442708484045355],[-76.48521137597163,42.44270933272245],[-76.48521521918143,42.44271011472962],[-76.48521907540072,42.44271082983067],[-76.48522294346483,42.442711477809645],[-76.48522682220552,42.44271205847082],[-76.4852307104513,42.44271257163882],[-76.48523460702786,42.442713017158674],[-76.48523851075831,42.442713394895804],[-76.48524242046362,42.442713704736136],[-76.485246334963,42.44271394658609],[-76.48525025307414,42.44271412037262],[-76.48657296692174,42.442739155965945],[-76.48684001325059,42.4427224655704],[-76.4871234953225,42.442675733859325],[-76.48739914150161,42.442593115004854],[-76.49452950606795,42.44273363967337],[-76.49453993000685,42.44272101398397],[-76.49443377152602,42.442614855503145],[-76.49443377152602,42.44258212846305],[-76.49440563844603,42.44142582633099],[-76.49439304093478,42.441427361851694],[-76.4942106786203,42.441449590139804],[-76.49419452323289,42.440550379098774],[-76.49417221582823,42.439873721157575],[-76.49371040502223,42.43946065282646],[-76.49368888872738,42.439442444667584],[-76.49209762719534,42.43927885703344],[-76.49065867398215,42.43927885703344],[-76.48964517800208,42.43926534375371],[-76.48924900476571,42.43907668983164],[-76.48632768418084,42.4374108128039],[-76.48608250585751,42.437269513452726],[-76.48607579676418,42.437267174524976],[-76.48477089470964,42.43771084122352],[-76.48469301634276,42.43772481939193],[-76.4845639923164,42.437734744317034],[-76.4844366224442,42.43773143600867],[-76.48433571903897,42.437726473546114],[-76.48395360942241,42.43767850307477],[-76.48322081911881,42.43757759966954],[-76.48248404420208,42.43748231204452],[-76.48178683509258,42.437499432223845],[-76.48170422700258,42.43761585378202],[-76.48151635608127,42.437806804554505],[-76.48016154201741,42.43881198918252],[-76.47991631945652,42.43891296317818],[-76.47925900050576,42.43922847627454],[-76.47875067385051,42.43948263960217],[-76.478480706228,42.43969722925084],[-76.47840886799612,42.43975433143515],[-76.47838907852261,42.439790729931076],[-76.47828616845864,42.439980010941575],[-76.47823358294258,42.440120238984406],[-76.47824298489044,42.44034588573327],[-76.47812075605283,42.440810355316195],[-76.47767267077127,42.44115442080026],[-76.47767463763164,42.44115610668058]]]},"properties":{"fid":1,"name":"Collegetown"}},
{"type":"Feature","geometry":{"type":"Polygon","coordinates":[[[-76.49457167163297,42.442735332123675],[-76.49453165127505,42.44314069612632],[-76.49442093348725,42.44338673565479],[-76.49459316115717,42.44346054751333],[-76.49480366472622,42.44725044378976],[-76.49512169072192,42.452155702537425],[-76.49462367779812,42.452165279709035],[-76.49465240931295,42.4528931447515],[-76.50228541508724,42.452646532582506],[-76.50299412578649,42.45186120451037],[-76.5031760920471,42.45165050673492],[-76.50329101810644,42.45157388936203],[-76.50400732960922,42.45089615055027],[-76.50402706695236,42.45087747604423],[-76.50390323349536,42.450629809130234],[-76.50223787642544,42.44853216109675],[-76.50174853134362,42.44791579253105],[-76.50077026622598,42.446714870587684],[-76.50027827525861,42.4461109006229],[-76.4992255453417,42.444731004895],[-76.499206297251,42.44470697890945],[-76.4991673610326,42.44317548765234],[-76.49908660277273,42.441377355265914],[-76.49908577334338,42.44135518104622],[-76.49912253986047,42.44261718479241],[-76.49709302847165,42.44265549649026],[-76.496039742205,42.44268552299866],[-76.49578645287023,42.44268552299866],[-76.49457198890062,42.44272993857366],[-76.49457167163297,42.442735332123675]]]},"properties":{"fid":2,"name":"Fall Creek"},"id":1},
{"type":"Feature","geometry":{"type":"Polygon","coordinates":[[[-76.50400732960922,42.45089615055027],[-76.50404243322973,42.45094304898728],[-76.50613324389722,42.448979505056066],[-76.50729682548608,42.447797742504875],[-76.50838768322565,42.44650689417973],[-76.50858767381123,42.445816017611335],[-76.5089876549824,42.445016055268994],[-76.50966035058846,42.44448880736154],[-76.51055121774245,42.443797930793146],[-76.51075120832803,42.44316159711174],[-76.51063070614401,42.440981825841604],[-76.51062240793233,42.44098204730094],[-76.4990926352736,42.44134200119034],[-76.49909352908607,42.441377157814365],[-76.49908660277273,42.441377355265914],[-76.4991673610326,42.44317548765234],[-76.499206297251,42.44470697890945],[-76.4992255453417,42.444731004895],[-76.50027827525861,42.4461109006229],[-76.50077026622598,42.446714870587684],[-76.50174853134362,42.44791579253105],[-76.50223787642544,42.44853216109675],[-76.50390323349536,42.450629809130234],[-76.50402706695236,42.45087747604423],[-76.50400732960922,42.45089615055027]]]},"properties":{"fid":3,"name":"North Side"}},
{"type":"Feature","geometry":{"type":"Polygon","coordinates":[[[-76.49453993000685,42.44272101398397],[-76.49455473107861,42.44273581505573],[-76.49457167163297,42.442735332123675],[-76.49457198890062,42.44272993857366],[-76.49578645287023,42.44268552299866],[-76.496039742205,42.44268552299866],[-76.49709302847165,42.44265549649026],[-76.49912253986047,42.44261718479241],[-76.49908577334338,42.44135518104622],[-76.49908660277273,42.441377355265914],[-76.49909352908607,42.441377157814365],[-76.4990926352736,42.44134200119034],[-76.51062240793233,42.44098204730094],[-76.51049141299376,42.43917723925129],[-76.51031029723869,42.43870846906167],[-76.5100119889362,42.438207737268215],[-76.50824170826543,42.436784736268315],[-76.50823259159864,42.436777408037166],[-76.50823259159864,42.43828598532756],[-76.49974097407114,42.438548419423334],[-76.49972812989883,42.43767501570484],[-76.49966995248548,42.43683525270866],[-76.49896869596533,42.43688053730245],[-76.49893761597814,42.43687680268696],[-76.49825048288743,42.43690704352219],[-76.49804798828264,42.437385266457426],[-76.49757820079957,42.43783957486554],[-76.49660622669661,42.4381982370717],[-76.4947259820483,42.439009531771084],[-76.49457355727806,42.43906495896026],[-76.49429862082381,42.439220756284335],[-76.49398633446602,42.439375104714046],[-76.4936922805378,42.4394451175541],[-76.49371040502223,42.43946065282646],[-76.49417221582823,42.439873721157575],[-76.49419452323289,42.440550379098774],[-76.4942106786203,42.441449590139804],[-76.49439304093478,42.441427361851694],[-76.49440563844603,42.44142582633099],[-76.49443377152602,42.44258212846305],[-76.49443377152602,42.442614855503145],[-76.49453993000685,42.44272101398397]]]},"properties":{"fid":4,"name":"Downtown"}},
{"type":"Feature","geometry":{"type":"Polygon","coordinates":[[[-76.50824170826543,42.436784736268315],[-76.50788561981695,42.429194429866385],[-76.50813129586078,42.42841960542046],[-76.50758324930146,42.42841960542046],[-76.5018571076645,42.431518903204164],[-76.50106338506136,42.43191576450573],[-76.49879560619523,42.43471269177395],[-76.4989136927171,42.436649207063866],[-76.49893761597814,42.43687680268696],[-76.49896869596533,42.43688053730245],[-76.49966995248548,42.43683525270866],[-76.49972812989883,42.43767501570484],[-76.49974097407114,42.438548419423334],[-76.50823259159864,42.43828598532756],[-76.50823259159864,42.436777408037166],[-76.50824170826543,42.436784736268315]]]},"properties":{"fid":5,"name":"South Side"},"id":4},
{"type":"Feature","geometry":{"type":"Polygon","coordinates":[[[-76.49371040502223,42.43946065282646],[-76.4936922805378,42.4394451175541],[-76.49398633446602,42.439375104714046],[-76.49429862082381,42.439220756284335],[-76.49457355727806,42.43906495896026],[-76.4947259820483,42.439009531771084],[-76.49660622669661,42.4381982370717],[-76.49757820079957,42.43783957486554],[-76.49804798828264,42.437385266457426],[-76.49825048288743,42.43690704352219],[-76.49893761597814,42.43687680268696],[-76.4989136927171,42.436649207063866],[-76.49879471053107,42.43470942447804],[-76.49877448082762,42.43198896694677],[-76.50142275724976,42.429078773076284],[-76.50206299990126,42.427623676141046],[-76.50180108245291,42.42727445287659],[-76.50127724755623,42.42727445287659],[-76.49906550021466,42.42826391879255],[-76.4981051362374,42.42811840909903],[-76.49443829196059,42.42945709827945],[-76.4920810349255,42.429551679580236],[-76.49126618064177,42.429231558254486],[-76.48861790421962,42.426554179893635],[-76.48524207932986,42.42326566081999],[-76.48140062342083,42.42626316050659],[-76.48201176413363,42.43478275306243],[-76.48429589000462,42.43617952068138],[-76.48605693361361,42.43725641785234],[-76.48607579676418,42.437267174524976],[-76.48608250585751,42.437269513452726],[-76.48632768418084,42.4374108128039],[-76.48924900476571,42.43907668983164],[-76.48964517800208,42.43926534375371],[-76.49065867398215,42.43927885703344],[-76.49209762719534,42.43927885703344],[-76.49368888872738,42.439442444667584],[-76.49371040502223,42.43946065282646]]]},"properties":{"fid":6,"name":"South Hill"},"id":5},
{"type":"Feature","geometry":{"type":"Polygon","coordinates":[[[-76.48607579676418,42.437267174524976],[-76.48605693361361,42.43725641785234],[-76.48429589000462,42.43617952068138],[-76.48195356025622,42.4347609266084],[-76.47831581791812,42.43269468896035],[-76.47502729884447,42.43129779590252],[-76.47205890109657,42.429318864070595],[-76.46152399928543,42.42233439878144],[-76.46172771285636,42.42620495662918],[-76.46216424193693,42.427630951625716],[-76.4631537078529,42.43441170334394],[-76.46356113499476,42.43513925181156],[-76.4642595815237,42.43574311703969],[-76.46629671723304,42.440137509784115],[-76.46740259090382,42.439875592335774],[-76.46824654712626,42.4400211020293],[-76.47019637701949,42.44109787376138],[-76.47109853711933,42.44135979120972],[-76.47767463763164,42.44115610668058],[-76.47767267077127,42.44115442080026],[-76.47812075605283,42.440810355316195],[-76.47824298489044,42.44034588573327],[-76.47823358294258,42.440120238984406],[-76.47828616845864,42.439980010941575],[-76.47838907852261,42.439790729931076],[-76.47840886799612,42.43975433143515],[-76.478480706228,42.43969722925084],[-76.47875067385051,42.43948263960217],[-76.47925900050576,42.43922847627454],[-76.47991631945652,42.43891296317818],[-76.48016154201741,42.43881198918252],[-76.48151635608127,42.437806804554505],[-76.48170422700258,42.43761585378202],[-76.48178683509258,42.437499432223845],[-76.48248404420208,42.43748231204452],[-76.48322081911881,42.43757759966954],[-76.48395360942241,42.43767850307477],[-76.48433571903897,42.437726473546114],[-76.4844366224442,42.43773143600867],[-76.4845639923164,42.437734744317034],[-76.48469301634276,42.43772481939193],[-76.48477089470964,42.43771084122352],[-76.48607579676418,42.437267174524976]]]},"properties":{"fid":7,"name":"Belle Sherman"},"id":6}
]}